# Made by eph2tle, compiled Sep 16 2024 20:36:24
# Run at Thu Sep 19 12:05:16 2024
#
#    The following TLEs (Two-Line Elements) were generated by fitting
# a numerically-integrated ephemeris,  based on the orbit given below,
# to the SDP4/SGP4 models.  Each TLE is good for the interval between
# its epoch and the epoch of the subsequent TLE (usually one day).
# The maximum deviation between the numerically integrated ephemerides
# and the TLE-based ephemeris, in kilometers,  is given for each TLE
# as the "worst residual".
#
#    This fitting is done using the 'eph2tle' code packaged with Find_Orb.
# The code has details on how the TLEs were computed :
#
#    https://github.com/Bill-Gray/find_orb/eph2tle.cpp
#
#    Be warned:  the error given is that between the numerically
# integrated ephems and the TLE model.  There will usually be at
# least some additional difference between the ephems and the actual
# motion of the satellite,  especially if the ephemerides are based
# on a short arc.  If the following orbital elements say something
# like "[based on] 10 observations 2015 Jan. 1-13",  and the TLEs
# are for 2015 May,  the extrapolation may be tenuous at best.  If
# your application requires a specific level of accuracy,  you may
# want to contact me;  I can give you some idea as to the fit of the
# underlying data (and possibly TLEs based on newer data).
#
#   You can usually find the underlying observational data,  and the
# fitted orbit,  residuals,  ephemerides,  and sometimes some comments
# about the object,  among the pages listed at
#
#    https://www.projectpluto.com/pluto/mpecs/pseudo.htm
#
#    WARNING:  for this object,  "normal" TLEs cannot be fitted.  (This
# usually means an object with an hyperbolic or nearly-parabolic orbit.)
# For this and similar cases,   an alternative model is used,  in which
# most of the traditional TLE data is replaced by six signed 8-digit hex
# numbers.  These six numbers are a state vector,  numerically integrated
# using a simplified force model.  This is necessary for objects at L2 or
# L1,  and sometimes for objects in high orbits where the SDP4/SGP4 model
# fails.  Some documentation is in 'get_el.cpp' in the source code at
# https://www.github.com/Bill-Gray/sat_code ; look for 'hex' in that file,
# with the actual integration done in 'sdp4.cpp'.  But be aware:  it's my
# own extension,  doesn't work with other code,  and is therefore used
# only when necessary.
#
#    Also,  if you use a TLE outside the "correct" time range (between
# its MJD and that of the next TLE),  all bets are off.  I've carefully
# computed and minimized the worst error over the "correct" time frame,
# but the ephemeris may (or may not) diverge wildly outside of it.
#
# Ephem range: 60523.000000 60713.000000 1.000000
# Created Thu Sep 19 12:04:52 2024
# Ephemeris start:  1 Aug 2024  0:00:00
# Ephemeris end:    7 Feb 2025  0:00:00
# Times are all TDT
# Positions/velocities are in equatorial J2000
# Orbital elements:  SSA01
#    Perigee 2024 Sep 12.73968 +/- 0.000175 TT = 17:45:08 (JD 2460566.23968)
# Epoch 2024 Sep 19.0 TT = JDT 2460572.5                           Find_Orb
# M  85.39986535 +/- 0.009            (J2000 equator)
# n  13.64145346 +/- 0.00106          Peri.  259.81334 +/- 0.006
# a374423.480 +/- 19.5                Node     2.93061 +/- 0.000055
# e   0.3166836 +/- 1.1e-5            Incl.   26.94396 +/- 0.000031
# P  26.3897d                H 30.21  G  0.15   U  8.1
# q 255849.677 +/- 9.56    Q 492997.282 +/- 29.5
# 33 of 36 observations 2024 Sept. 13-19; mean residual 0".815
#
# 1 NoradU COSPAR   Epoch.epoch     dn/dt/2  d2n/dt2/6 BSTAR    T El# C
# 2 NoradU Inclina RAAscNode Eccent  ArgPeri MeanAno  MeanMotion Rev# C

# Worst residual: 42.43 km
# MJD 60523.000000 (2024 Aug  1  0:00)
SSA01
1 79913U 24048ZZZ 24213.99919926 +001CMN3T +004WRJFO +002LRJC6H 24545
2 79913                          -0007725D -00007ZO4 +0000BCX9     04

# Worst residual: 70.64 km
# MJD 60524.000000 (2024 Aug  2  0:00)
SSA01
1 79913U 24048ZZZ 24214.99919926 -000FVM5Z +004OY8VE +002LCJE2H 24542
2 79913                          -0007N4V9 -0001LNDB -0000FH1X     06

# Worst residual: 37.95 km
# MJD 60525.000000 (2024 Aug  3  0:00)
SSA01
1 79913U 24048ZZZ 24215.99919926 -0029CIO8 +0045BYQF +002E9DVVH 24541
2 79913                          -0007DCQ1 -0002WD4C -00017816     01

# Worst residual: 24.05 km
# MJD 60526.000000 (2024 Aug  4  0:00)
SSA01
1 79913U 24048ZZZ 24216.99919926 -003WYCN8 +003BTWZ5 +0020ZIZNH 24544
2 79913                          -0006BP1Z -0003V551 -0001U8RE     04

# Worst residual: 13.31 km
# MJD 60527.000000 (2024 Aug  5  0:00)
SSA01
1 79913U 24048ZZZ 24217.99919926 -0059LZ1U +002BPTAD +001J3RCMH 24545
2 79913                          -0004WXPK -0004FDZ8 -00029DT3     04

# Worst residual: 10.50 km
# MJD 60528.000000 (2024 Aug  6  0:00)
SSA01
1 79913U 24048ZZZ 24218.99919926 -0069VHAT +0018DTOE +000YJO06H 24545
2 79913                          -0003HRNW -0004MGFX -0002GS60     09

# Worst residual: 7.91 km
# MJD 60529.000000 (2024 Aug  7  0:00)
SSA01
1 79913U 24048ZZZ 24219.99919926 -006YBNGW +0004LRHJ +000CYM4NH 24540
2 79913                          -00026RUT -0004JNRR -0002I9D7     04

# Worst residual: 12.89 km
# MJD 60530.000000 (2024 Aug  8  0:00)
SSA01
1 79913U 24048ZZZ 24220.99919926 -007C1ND2 -000XLVNH -0008FT6PH 24544
2 79913                          -0001080F -00049R61 -0002FGYZ     05

# Worst residual: 24.52 km
# MJD 60531.000000 (2024 Aug  9  0:00)
SSA01
1 79913U 24048ZZZ 24221.99919926 -007FXPUC -001WRDGD -000SRMRJH 24549
2 79913                          +00003JG8 -0003UD33 -00029GCU     04

# Worst residual: 30.32 km
# MJD 60532.000000 (2024 Aug 10  0:00)
SSA01
1 79913U 24048ZZZ 24222.99919926 -007ACELW -002ROJXP -001BC4AZH 24546
2 79913                          +00017BV7 -0003ARL8 -00020XYL     01

# Worst residual: 35.84 km
# MJD 60533.000000 (2024 Aug 11  0:00)
SSA01
1 79913U 24048ZZZ 24223.99919926 -006UXBPU -003HMPD7 -001RO0TUH 24540
2 79913                          +0002DMBT -0002PHEY -0001R102     01

# Worst residual: 38.93 km
# MJD 60534.000000 (2024 Aug 12  0:00)
SSA01
1 79913U 24048ZZZ 24224.99919926 -006553PJ -0042KFDZ -0025KBJ7H 24543
2 79913                          +0003L500 -000256FR -0001GPNB     05

# Worst residual: 39.33 km
# MJD 60535.000000 (2024 Aug 13  0:00)
SSA01
1 79913U 24048ZZZ 24225.99919926 -00553TDL -004IN81U -002GVJ96H 24548
2 79913                          +0004QOJM -0001KEC5 -000156VR     05

# Worst residual: 41.07 km
# MJD 60536.000000 (2024 Aug 14  0:00)
SSA01
1 79913U 24048ZZZ 24226.99919926 -003VG9SI -004TA0CE -002P2T2CH 24548
2 79913                          +0005T95M -0000V4T6 -0000QFYG     02

# Worst residual: 45.26 km
# MJD 60537.000000 (2024 Aug 15  0:00)
SSA01
1 79913U 24048ZZZ 24227.99919926 -002CYINY -004WXQZI -002T54QDH 24544
2 79913                          +0006S0WJ +000028N3 -00006DKM     07

# Worst residual: 54.21 km
# MJD 60538.000000 (2024 Aug 16  0:00)
SSA01
1 79913U 24048ZZZ 24228.99919926 -000MXU7M -004RDLY7 -002RKYA3H 24541
2 79913                          +0007IT4B +00019QW9 +0000KK75     03

# Worst residual: 48.04 km
# MJD 60539.000000 (2024 Aug 17  0:00)
SSA01
1 79913U 24048ZZZ 24229.99919926 +0017J49U -004AFM2F -002ITUPHH 24547
2 79913                          +0007QKJW +0002NOQE +0001GS3S     04

# Worst residual: 30.48 km
# MJD 60540.000000 (2024 Aug 18  0:00)
SSA01
1 79913U 24048ZZZ 24230.99919926 +002ZYTQT -003HVLRU -0022G09HH 24548
2 79913                          +000703F1 +0003WGEV +0002AK7Z     04

# Worst residual: 40.15 km
# MJD 60541.000000 (2024 Aug 19  0:00)
SSA01
1 79913U 24048ZZZ 24231.99919926 +004I66E9 -002G6N3R -001G0O2IH 24540
2 79913                          +0005GP96 +0004QQJR +0002UBCT     07

# Worst residual: 39.42 km
# MJD 60542.000000 (2024 Aug 20  0:00)
SSA01
1 79913U 24048ZZZ 24232.99919926 +005LULNO -0019DGPD -000QAJXLH 24547
2 79913                          +0003Q4OX +000535VI +0003283C     07

# Worst residual: 39.53 km
# MJD 60543.000000 (2024 Aug 21  0:00)
SSA01
1 79913U 24048ZZZ 24233.99919926 +006AXT3O -0001G35P +00004VBJH 24544
2 79913                          +000241PJ +00050UKJ +00030PBX     06

# Worst residual: 49.20 km
# MJD 60544.000000 (2024 Aug 22  0:00)
SSA01
1 79913U 24048ZZZ 24234.99919926 +006MVGMW +0014MIZ8 +000PCW9KH 24540
2 79913                          +0000OCAX +0004ODND +0002SK2S     09

# Worst residual: 52.88 km
# MJD 60545.000000 (2024 Aug 23  0:00)
SSA01
1 79913U 24048ZZZ 24235.99919926 +006MXM2O +0026UBR2 +001C0OO2H 24544
2 79913                          -0000NISS +00045997 +0002FM8D     06

# Worst residual: 31.34 km
# MJD 60546.000000 (2024 Aug 24  0:00)
SSA01
1 79913U 24048ZZZ 24236.99919926 +006BMBGN +003416GU +001V714NH 24547
2 79913                          -0001YR0L +0003J6Q7 +0001ZZIV     00

# Worst residual: 18.18 km
# MJD 60547.000000 (2024 Aug 25  0:00)
SSA01
1 79913U 24048ZZZ 24237.99919926 +005P3GWD +003VWUO6 +002AL0QDH 24544
2 79913                          -00038CJJ +0002X5J3 +0001KD8N     02

# Worst residual: 7.37 km
# MJD 60548.000000 (2024 Aug 26  0:00)
SSA01
1 79913U 24048ZZZ 24238.99919926 +004S63CN +004IDV8M +002M9DMRH 24542
2 79913                          -0004D491 +00029K7A +00014SIF     03

# Worst residual: 7.63 km
# MJD 60549.000000 (2024 Aug 27  0:00)
SSA01
1 79913U 24048ZZZ 24239.99919926 +003M4FBO +004YO5KG +002U0J4KH 24549
2 79913                          -0005CCBG +0001H4CH +0000NDDD     02

# Worst residual: 8.12 km
# MJD 60550.000000 (2024 Aug 28  0:00)
SSA01
1 79913U 24048ZZZ 24240.99919926 +0028BJT7 +0057B5IG +002X7KA6H 24548
2 79913                          -00065JS7 +0000HJFQ +00002M59     06

# Worst residual: 7.51 km
# MJD 60551.000000 (2024 Aug 29  0:00)
SSA01
1 79913U 24048ZZZ 24241.99919926 +000OFRUL +0056F3FH +002UY2XUH 24548
2 79913                          -0006QFO5 -0000QCW9 -0000M4WZ     08

